MALLIGYONG-1            
1 58400U 23179A   24245.92337573  .00010474  00000+0  45563-3 0  9996
2 58400  97.3916 131.4805 0000429  80.2999 279.8286 15.22435104 43396
